GLOBALSTAR M063         
1 26081U 00008A   25014.71801132 -.00000099  00000+0 -23289-3 0  9996
2 26081  51.9933 155.7530 0004905  32.4622  72.7486 11.86168529139365
GLOBALSTAR M062         
1 26082U 00008B   25014.93721796 -.00000074  00000+0  17339-3 0  9999
2 26082  51.9819 186.4411 0007797 138.1463  27.1753 12.43458074140057
GLOBALSTAR M060         
1 26083U 00008C   25015.46806868 -.00000234  00000+0 -14185-2 0  9997
2 26083  52.0016 123.2817 0004042 162.0115 277.5909 12.17651330133932
GLOBALSTAR M064         
1 26084U 00008D   25014.82981856 -.00000035  00000+0  68906-3 0  9997
2 26084  52.0016 256.0975 0002299 100.3325 259.7767 11.88528959148862
GLOBALSTAR M065         
1 31571U 07020A   25015.05554997 -.00000124  00000+0 -11622-3 0  9996
2 31571  51.9917 332.3493 0010360 330.0019 109.5568 12.61990891814377
GLOBALSTAR M069         
1 31573U 07020C   25014.71013868 -.00000044  00000+0  36120-3 0  9997
2 31573  51.9959 294.2932 0000876  74.7732 295.6069 12.53309457815078
GLOBALSTAR M072         
1 31574U 07020D   25015.46015361 -.00000069  00000+0  20429-3 0  9993
2 31574  52.0093  38.5239 0000745  71.5584  73.8937 11.91772061813427
GLOBALSTAR M071         
1 31576U 07020F   25015.21286132 -.00000009  00000+0  81344-3 0  9991
2 31576  52.0075 299.4831 0000986 104.1305  43.3471 12.18246385815035
